{"type": "FeatureCollection", "features": [{"type": "Feature", "properties": {"source": "Natural Earth 1:110m, public domain"}, "geometry": {"type": "MultiPolygon", "coordinates": [[[[99.26374, 0.183142], [98.970011, 1.042882], [98.601351, 1.823507], [97.699598, 2.453184], [97.176942, 3.308791], [96.424017, 3.86886], [95.380876, 4.970782], [95.293026, 5.479821], [95.936863, 5.439513], [97.484882, 5.246321], [98.369169, 4.26837], [99.142559, 3.59035], [99.693998, 3.174329], [100.0, 2.8271432925791258], [100.0, -0.5156016790129353], [99.26374, 0.183142]]], [[[81.637322, 6.481775], [81.21802, 6.197141], [80.348357, 5.96837], [79.872469, 6.763463], [79.695167, 8.200843], [80.147801, 9.824078], [80.838818, 9.268427], [81.304319, 8.564206], [81.787959, 7.523055], [81.637322, 6.481775]]], [[[99.478882, 10.846497], [99.153687, 9.963074], [99.222473, 9.239319], [99.873901, 9.207886], [100.0, 8.924319777282221], [100.0, 6.547887250459258], [99.690674, 6.848328], [99.519714, 7.343506], [98.988281, 7.908081], [98.503906, 8.382324], [98.339722, 7.794495], [98.150085, 8.350098], [98.259277, 8.973877], [98.553528, 9.933105], [98.457275, 10.675293], [98.764526, 11.441284], [98.428284, 12.033081], [98.509705, 13.122498], [98.103699, 13.640503], [97.77771, 14.83728], [97.597107, 16.100708], [97.164673, 16.928711], [96.50592, 16.427307], [95.369324, 15.714478], [94.808472, 15.803528], [94.188904, 16.038086], [94.533508, 17.277283], [94.32489, 18.213501], [93.541077, 19.366516], [93.66333, 19.727112], [93.078308, 19.855286], [92.36853, 20.670898], [92.082886, 21.192322], [92.02533, 21.701721], [91.8349, 22.182922], [91.417114, 22.765076], [90.496094, 22.805115], [90.587097, 22.392883], [90.272888, 21.836487], [89.847473, 22.039124], [89.702087, 21.857117], [89.418884, 21.966309], [89.032104, 22.055725], [88.888916, 21.690674], [88.208496, 21.703308], [86.975708, 21.495483], [87.033081, 20.743286], [86.499329, 20.151672], [85.060303, 19.478699], [83.941101, 18.302124], [83.18927, 17.671326], [82.192871, 17.016724], [82.191284, 16.556702], [81.692688, 16.310303], [80.792114, 15.952087], [80.32489, 15.899292], [80.025085, 15.136475], [80.233276, 13.835876], [80.286316, 13.006287], [79.862488, 12.056274], [79.858093, 10.3573], [79.340515, 10.308899], [78.885498, 9.546082], [79.189697, 9.216675], [78.278076, 8.933105], [77.941284, 8.25293], [77.539917, 7.965515], [76.593079, 8.899292], [76.130127, 10.299683], [75.746521, 11.308289], [75.396118, 11.781311], [74.864929, 12.741882], [74.616699, 13.992676], [74.443909, 14.61731], [73.534302, 15.990723], [73.119873, 17.928711], [72.820923, 19.208313], [72.824524, 20.419495], [72.630676, 21.356079], [71.175293, 20.757507], [70.47052, 20.877319], [69.164124, 22.089294], [69.644897, 22.450684], [69.34967, 22.843323], [68.176697, 23.692078], [67.443726, 23.944885], [67.145508, 24.663696], [66.372925, 25.425293], [64.530518, 25.237122], [62.905701, 25.218506], [61.497498, 25.078308], [59.616089, 25.380127], [58.525879, 25.610107], [57.397278, 25.739929], [56.970886, 26.966125], [56.492126, 27.143311], [55.723694, 26.964722], [54.715088, 26.480713], [53.493103, 26.8125], [52.483704, 27.580872], [51.520874, 27.865723], [51.42636604121666, 28.0], [100.0, 28.0], [100.0, 12.256590881151187], [99.478882, 10.846497]]], [[[48.807678, 27.689697], [49.299683, 27.461304], [49.470886, 27.110107], [50.152527, 26.689697], [50.213074, 26.2771], [50.113281, 25.944092], [50.239929, 25.608093], [50.527527, 25.327881], [50.660706, 24.999878], [50.81012, 24.754883], [50.743896, 25.482483], [51.013489, 26.00708], [51.286499, 26.114685], [51.589111, 25.801086], [51.606689, 25.215698], [51.389709, 24.627502], [51.579529, 24.245483], [51.757507, 24.294128], [51.794495, 24.019897], [52.577087, 24.17749], [53.404114, 24.151306], [54.008118, 24.121887], [54.693115, 24.797913], [55.439087, 25.439087], [56.070923, 26.055481], [56.362122, 26.395874], [56.485718, 26.309082], [56.391479, 25.896118], [56.261108, 25.714722], [56.396912, 24.924683], [56.845276, 24.241699], [57.403503, 23.878723], [58.137085, 23.747925], [58.729309, 23.565674], [59.180481, 22.992493], [59.450073, 22.660278], [59.808105, 22.533691], [59.806274, 22.310486], [59.442322, 21.714478], [59.282471, 21.433899], [58.861084, 21.114075], [58.488098, 20.429077], [58.034302, 20.481506], [57.826477, 20.243103], [57.665894, 19.736084], [57.788696, 19.067688], [57.694519, 18.944702], [57.234314, 18.94812], [56.60968, 18.57428], [56.512329, 18.087097], [56.283508, 17.876099], [55.661499, 17.884277], [55.270081, 17.632324], [55.274902, 17.228271], [54.791077, 16.950684], [54.239319, 17.045105], [53.570496, 16.707703], [53.108704, 16.651123], [52.385315, 16.382507], [52.191711, 15.938477], [52.168274, 15.597473], [51.172485, 15.175293], [49.574707, 14.708679], [48.679321, 14.003296], [48.239075, 13.94812], [47.938904, 14.007324], [47.354492, 13.592285], [46.717102, 13.399719], [45.877686, 13.3479], [45.625122, 13.291077], [45.406494, 13.026917], [45.144287, 12.953918], [45.0, 12.71666788320332], [45.0, 28.0], [48.66677915858734, 28.0], [48.807678, 27.689697]]], [[[45.556885, 10.69812], [46.645508, 10.816528], [47.525696, 11.127319], [48.021729, 11.193115], [48.378906, 11.375488], [48.948303, 11.410706], [49.267883, 11.430481], [49.728699, 11.578918], [50.258911, 11.679688], [50.732117, 12.021912], [51.111328, 12.024719], [51.133911, 11.748291], [51.041504, 11.166504], [51.045288, 10.64093], [50.83429, 10.279724], [50.55249, 9.19873], [50.070923, 8.081726], [49.452698, 6.804688], [48.594482, 5.339111], [47.740906, 4.219482], [46.56488, 2.855286], [45.564087, 2.045898], [45.0, 1.6714282898022383], [45.0, 10.54698992610597], [45.556885, 10.69812]]]]}}]}